SL-3 R/B                
1 10114U 77057B   23035.13432963  .00004978  00000+0  23037-3 0  9992
2 10114  97.4372 176.0841 0012468 338.7628  21.3088 15.20519397495693
SEASAT 1                
1 10967U 78064A   23035.19486908  .00000321  00000+0  13312-3 0  9994
2 10967 107.9929 280.3414 0001920 248.4624 111.6316 14.44187192343646
METEOR 1-29             
1 11251U 79005A   23034.96311873  .00022806  00000+0  39373-3 0  9996
2 11251  97.7525  26.4598 0008979 266.2415  93.7809 15.50977124956232
SL-14 R/B               
1 11267U 79011B   23035.12792146  .00000621  00000+0  62597-4 0  9991
2 11267  82.5230  86.1078 0015742 220.1278 139.8779 14.89418967381711
SL-8 R/B                
1 11574U 79089B   23034.37170338  .00000369  00000+0  12287-3 0  9995
2 11574  74.0700  21.0759 0014721 124.6296 235.6251 14.41024534273214
SL-14 R/B               
1 11672U 80005B   23034.19933337  .00000637  00000+0  65851-4 0  9994
2 11672  82.5167 297.3820 0015805 332.2076  27.8296 14.88450898308180
SL-8 R/B                
1 12139U 81003B   23035.00705538  .00009531  00000+0  41477-3 0  9992
2 12139  82.9438 217.6755 0424779  12.0715 349.0288 14.66825999146761
