<?xml version="1.0" encoding="UTF-8"?>
<ndm xmlns:xsi="http://www.w3.org/2001/XMLSchema-instance" xsi:noNamespaceSchemaLocation="https://sanaregistry.org/r/ndmxml_unqualified/ndmxml-2.0.0-master-2.0.xsd">
<omm id="CCSDS_OMM_VERS" version="2.0">
<header><CREATION_DATE/><ORIGINATOR/></header><body><segment><metadata><OBJECT_NAME>SL-3 R/B</OBJECT_NAME><OBJECT_ID>1977-057B</OBJECT_ID><CENTER_NAME>EARTH</CENTER_NAME><REF_FRAME>TEME</REF_FRAME><TIME_SYSTEM>UTC</TIME_SYSTEM><MEAN_ELEMENT_THEORY>SGP4</MEAN_ELEMENT_THEORY></metadata><data><meanElements><EPOCH>2023-02-04T03:13:26.080032</EPOCH><MEAN_MOTION>15.20519397</MEAN_MOTION><ECCENTRICITY>.0012468</ECCENTRICITY><INCLINATION>97.4372</INCLINATION><RA_OF_ASC_NODE>176.0841</RA_OF_ASC_NODE><ARG_OF_PERICENTER>338.7628</ARG_OF_PERICENTER><MEAN_ANOMALY>21.3088</MEAN_ANOMALY></meanElements><tleParameters><EPHEMERIS_TYPE>0</EPHEMERIS_TYPE><CLASSIFICATION_TYPE>U</CLASSIFICATION_TYPE><NORAD_CAT_ID>10114</NORAD_CAT_ID><ELEMENT_SET_NO>999</ELEMENT_SET_NO><REV_AT_EPOCH>49569</REV_AT_EPOCH><BSTAR>.23037E-3</BSTAR><MEAN_MOTION_DOT>.4978E-4</MEAN_MOTION_DOT><MEAN_MOTION_DDOT>0</MEAN_MOTION_DDOT></tleParameters></data></segment></body></omm>
<omm id="CCSDS_OMM_VERS" version="2.0">
<header><CREATION_DATE/><ORIGINATOR/></header><body><segment><metadata><OBJECT_NAME>SEASAT 1</OBJECT_NAME><OBJECT_ID>1978-064A</OBJECT_ID><CENTER_NAME>EARTH</CENTER_NAME><REF_FRAME>TEME</REF_FRAME><TIME_SYSTEM>UTC</TIME_SYSTEM><MEAN_ELEMENT_THEORY>SGP4</MEAN_ELEMENT_THEORY></metadata><data><meanElements><EPOCH>2023-02-04T04:40:36.688512</EPOCH><MEAN_MOTION>14.44187192</MEAN_MOTION><ECCENTRICITY>.000192</ECCENTRICITY><INCLINATION>107.9929</INCLINATION><RA_OF_ASC_NODE>280.3414</RA_OF_ASC_NODE><ARG_OF_PERICENTER>248.4624</ARG_OF_PERICENTER><MEAN_ANOMALY>111.6316</MEAN_ANOMALY></meanElements><tleParameters><EPHEMERIS_TYPE>0</EPHEMERIS_TYPE><CLASSIFICATION_TYPE>U</CLASSIFICATION_TYPE><NORAD_CAT_ID>10967</NORAD_CAT_ID><ELEMENT_SET_NO>999</ELEMENT_SET_NO><REV_AT_EPOCH>34364</REV_AT_EPOCH><BSTAR>.13312E-3</BSTAR><MEAN_MOTION_DOT>.321E-5</MEAN_MOTION_DOT><MEAN_MOTION_DDOT>0</MEAN_MOTION_DDOT></tleParameters></data></segment></body></omm>
<omm id="CCSDS_OMM_VERS" version="2.0">
<header><CREATION_DATE/><ORIGINATOR/></header><body><segment><metadata><OBJECT_NAME>METEOR 1-29</OBJECT_NAME><OBJECT_ID>1979-005A</OBJECT_ID><CENTER_NAME>EARTH</CENTER_NAME><REF_FRAME>TEME</REF_FRAME><TIME_SYSTEM>UTC</TIME_SYSTEM><MEAN_ELEMENT_THEORY>SGP4</MEAN_ELEMENT_THEORY></metadata><data><meanElements><EPOCH>2023-02-03T23:06:53.458272</EPOCH><MEAN_MOTION>15.50977124</MEAN_MOTION><ECCENTRICITY>.0008979</ECCENTRICITY><INCLINATION>97.7525</INCLINATION><RA_OF_ASC_NODE>26.4598</RA_OF_ASC_NODE><ARG_OF_PERICENTER>266.2415</ARG_OF_PERICENTER><MEAN_ANOMALY>93.7809</MEAN_ANOMALY></meanElements><tleParameters><EPHEMERIS_TYPE>0</EPHEMERIS_TYPE><CLASSIFICATION_TYPE>U</CLASSIFICATION_TYPE><NORAD_CAT_ID>11251</NORAD_CAT_ID><ELEMENT_SET_NO>999</ELEMENT_SET_NO><REV_AT_EPOCH>95623</REV_AT_EPOCH><BSTAR>.39373E-3</BSTAR><MEAN_MOTION_DOT>.22806E-3</MEAN_MOTION_DOT><MEAN_MOTION_DDOT>0</MEAN_MOTION_DDOT></tleParameters></data></segment></body></omm>
<omm id="CCSDS_OMM_VERS" version="2.0">
<header><CREATION_DATE/><ORIGINATOR/></header><body><segment><metadata><OBJECT_NAME>SL-14 R/B</OBJECT_NAME><OBJECT_ID>1979-011B</OBJECT_ID><CENTER_NAME>EARTH</CENTER_NAME><REF_FRAME>TEME</REF_FRAME><TIME_SYSTEM>UTC</TIME_SYSTEM><MEAN_ELEMENT_THEORY>SGP4</MEAN_ELEMENT_THEORY></metadata><data><meanElements><EPOCH>2023-02-04T03:04:12.414144</EPOCH><MEAN_MOTION>14.89418967</MEAN_MOTION><ECCENTRICITY>.0015742</ECCENTRICITY><INCLINATION>82.5230</INCLINATION><RA_OF_ASC_NODE>86.1078</RA_OF_ASC_NODE><ARG_OF_PERICENTER>220.1278</ARG_OF_PERICENTER><MEAN_ANOMALY>139.8779</MEAN_ANOMALY></meanElements><tleParameters><EPHEMERIS_TYPE>0</EPHEMERIS_TYPE><CLASSIFICATION_TYPE>U</CLASSIFICATION_TYPE><NORAD_CAT_ID>11267</NORAD_CAT_ID><ELEMENT_SET_NO>999</ELEMENT_SET_NO><REV_AT_EPOCH>38171</REV_AT_EPOCH><BSTAR>.62597E-4</BSTAR><MEAN_MOTION_DOT>.621E-5</MEAN_MOTION_DOT><MEAN_MOTION_DDOT>0</MEAN_MOTION_DDOT></tleParameters></data></segment></body></omm>
<omm id="CCSDS_OMM_VERS" version="2.0">
<header><CREATION_DATE/><ORIGINATOR/></header><body><segment><metadata><OBJECT_NAME>SL-8 R/B</OBJECT_NAME><OBJECT_ID>1979-089B</OBJECT_ID><CENTER_NAME>EARTH</CENTER_NAME><REF_FRAME>TEME</REF_FRAME><TIME_SYSTEM>UTC</TIME_SYSTEM><MEAN_ELEMENT_THEORY>SGP4</MEAN_ELEMENT_THEORY></metadata><data><meanElements><EPOCH>2023-02-03T08:55:15.172032</EPOCH><MEAN_MOTION>14.41024534</MEAN_MOTION><ECCENTRICITY>.0014721</ECCENTRICITY><INCLINATION>74.0700</INCLINATION><RA_OF_ASC_NODE>21.0759</RA_OF_ASC_NODE><ARG_OF_PERICENTER>124.6296</ARG_OF_PERICENTER><MEAN_ANOMALY>235.6251</MEAN_ANOMALY></meanElements><tleParameters><EPHEMERIS_TYPE>0</EPHEMERIS_TYPE><CLASSIFICATION_TYPE>U</CLASSIFICATION_TYPE><NORAD_CAT_ID>11574</NORAD_CAT_ID><ELEMENT_SET_NO>999</ELEMENT_SET_NO><REV_AT_EPOCH>27321</REV_AT_EPOCH><BSTAR>.12287E-3</BSTAR><MEAN_MOTION_DOT>.369E-5</MEAN_MOTION_DOT><MEAN_MOTION_DDOT>0</MEAN_MOTION_DDOT></tleParameters></data></segment></body></omm>
<omm id="CCSDS_OMM_VERS" version="2.0">
<header><CREATION_DATE/><ORIGINATOR/></header><body><segment><metadata><OBJECT_NAME>SL-14 R/B</OBJECT_NAME><OBJECT_ID>1980-005B</OBJECT_ID><CENTER_NAME>EARTH</CENTER_NAME><REF_FRAME>TEME</REF_FRAME><TIME_SYSTEM>UTC</TIME_SYSTEM><MEAN_ELEMENT_THEORY>SGP4</MEAN_ELEMENT_THEORY></metadata><data><meanElements><EPOCH>2023-02-03T04:47:02.403168</EPOCH><MEAN_MOTION>14.88450898</MEAN_MOTION><ECCENTRICITY>.0015805</ECCENTRICITY><INCLINATION>82.5167</INCLINATION><RA_OF_ASC_NODE>297.3820</RA_OF_ASC_NODE><ARG_OF_PERICENTER>332.2076</ARG_OF_PERICENTER><MEAN_ANOMALY>27.8296</MEAN_ANOMALY></meanElements><tleParameters><EPHEMERIS_TYPE>0</EPHEMERIS_TYPE><CLASSIFICATION_TYPE>U</CLASSIFICATION_TYPE><NORAD_CAT_ID>11672</NORAD_CAT_ID><ELEMENT_SET_NO>999</ELEMENT_SET_NO><REV_AT_EPOCH>30818</REV_AT_EPOCH><BSTAR>.65851E-4</BSTAR><MEAN_MOTION_DOT>.637E-5</MEAN_MOTION_DOT><MEAN_MOTION_DDOT>0</MEAN_MOTION_DDOT></tleParameters></data></segment></body></omm>
<omm id="CCSDS_OMM_VERS" version="2.0">
<header><CREATION_DATE/><ORIGINATOR/></header><body><segment><metadata><OBJECT_NAME>SL-8 R/B</OBJECT_NAME><OBJECT_ID>1981-003B</OBJECT_ID><CENTER_NAME>EARTH</CENTER_NAME><REF_FRAME>TEME</REF_FRAME><TIME_SYSTEM>UTC</TIME_SYSTEM><MEAN_ELEMENT_THEORY>SGP4</MEAN_ELEMENT_THEORY></metadata><data><meanElements><EPOCH>2023-02-04T00:10:09.584832</EPOCH><MEAN_MOTION>14.66825999</MEAN_MOTION><ECCENTRICITY>.0424779</ECCENTRICITY><INCLINATION>82.9438</INCLINATION><RA_OF_ASC_NODE>217.6755</RA_OF_ASC_NODE><ARG_OF_PERICENTER>12.0715</ARG_OF_PERICENTER><MEAN_ANOMALY>349.0288</MEAN_ANOMALY></meanElements><tleParameters><EPHEMERIS_TYPE>0</EPHEMERIS_TYPE><CLASSIFICATION_TYPE>U</CLASSIFICATION_TYPE><NORAD_CAT_ID>12139</NORAD_CAT_ID><ELEMENT_SET_NO>999</ELEMENT_SET_NO><REV_AT_EPOCH>14676</REV_AT_EPOCH><BSTAR>.41477E-3</BSTAR><MEAN_MOTION_DOT>.9531E-4</MEAN_MOTION_DOT><MEAN_MOTION_DDOT>0</MEAN_MOTION_DDOT></tleParameters></data></segment></body></omm>

</ndm>
